NORAD_CAT_ID,OBJECT_NAME,OBJECT_TYPE,EPOCH,MEAN_MOTION,ECCENTRICITY,INCLINATION,RA_OF_ASC_NODE,ARG_OF_PERICENTER,MEAN_ANOMALY,BSTAR,MEAN_MOTION_DOT,MEAN_MOTION_DDOT,TLE_LINE0,TLE_LINE1,TLE_LINE2,SEMIMAJOR_AXIS,PERIOD,APOGEE,PERIGEE,DECAYED
54208.0,STARLINK-5255,PAYLOAD,2024-01-29 10:08:41,15.08841456,0.0001399,53.2171,187.0317,75.296,284.8187,0.00013273,1.825e-05,0.0,0 STARLINK-5255,1 54208U 22141BD  24029.42269777  .00001825  00000-0  13273-3 0  9995,2 54208  53.2171 187.0317 0001399  75.2960 284.8187 15.08841456 70061,6917.876,95.437,540.709,538.773,0.0
54208.0,STARLINK-5255,PAYLOAD,2024-01-30 09:59:28,15.08843014,0.0001578,53.2174,182.572,68.6384,291.4776,9.4684e-05,1.219e-05,0.0,0 STARLINK-5255,1 54208U 22141BD  24030.41629882  .00001219  00000-0  94684-4 0  9996,2 54208  53.2174 182.5720 0001578  68.6384 291.4776 15.08843014 70449,6917.871,95.437,540.828,538.645,0.0
54208.0,STARLINK-5255,PAYLOAD,2024-01-30 16:21:00,15.08842357,0.0001504,53.2171,181.3819,70.8593,289.2562,7.779e-05,9.5e-06,0.0,0 STARLINK-5255,1 54208U 22141BD  24030.68125914  .00000950  00000-0  77790-4 0  9992,2 54208  53.2171 181.3819 0001504  70.8593 289.2562 15.08842357 70254,6917.873,95.437,540.779,538.698,0.0
54208.0,STARLINK-5255,PAYLOAD,2024-02-01 09:41:02,15.08840229,0.0001438,53.2171,173.6502,74.7761,285.339,4.2173e-05,3.83e-06,0.0,0 STARLINK-5255,1 54208U 22141BD  24032.40350044  .00000383  00000-0  42173-4 0  9995,2 54208  53.2171 173.6502 0001438  74.7761 285.3390 15.08840229 70749,6917.88,95.438,540.739,538.75,0.0
54208.0,STARLINK-5255,PAYLOAD,2024-02-01 16:02:34,15.08841901,0.0001471,53.2177,172.4612,77.9338,282.1819,5.589e-05,6.02e-06,0.0,0 STARLINK-5255,1 54208U 22141BD  24032.66845921  .00000602  00000-0  55890-4 0  9990,2 54208  53.2177 172.4612 0001471  77.9338 282.1819 15.08841901 70554,6917.875,95.437,540.757,538.722,0.0
54208.0,STARLINK-5255,PAYLOAD,2024-02-02 14:17:58,15.08839226,0.0001571,53.2167,168.2992,89.0422,271.0751,7.9298e-05,9.74e-06,0.0,0 STARLINK-5255,1 54208U 22141BD  24033.59582136  .00000974  00000-0  79298-4 0  9999,2 54208  53.2167 168.2992 0001571  89.0422 271.0751 15.08839226 70690,6917.883,95.438,540.835,538.661,0.0
54208.0,STARLINK-5255,PAYLOAD,2024-02-02 15:53:22,15.0884639,0.0001508,53.2173,167.9996,89.0541,271.0624,3.9434e-05,3.4e-06,0.0,0 STARLINK-5255,1 54208U 22141BD  24033.66206056  .00000340  00000-0  39434-4 0  9996,2 54208  53.2173 167.9996 0001508  89.0541 271.0624 15.08846390 70935,6917.861,95.437,540.769,538.683,0.0
54208.0,STARLINK-5255,PAYLOAD,2024-02-03 12:33:23,15.08835311,0.0001494,53.2181,164.1369,100.6226,259.4935,2.8165e-05,1.6e-06,0.0,0 STARLINK-5255,1 54208U 22141BD  24034.52318747  .00000160  00000-0  28165-4 0  9992,2 54208  53.2181 164.1369 0001494 100.6226 259.4935 15.08835311 71062,6917.895,95.438,540.793,538.726,0.0
54208.0,STARLINK-5255,PAYLOAD,2024-02-03 15:44:09,15.08836742,0.00015,53.2179,163.5416,98.0779,262.0384,4.3768e-05,4.09e-06,0.0,0 STARLINK-5255,1 54208U 22141BD  24034.65566655  .00000409  00000-0  43768-4 0  9991,2 54208  53.2179 163.5416 0001500  98.0779 262.0384 15.08836742 70859,6917.89,95.438,540.793,538.718,0.0
54208.0,STARLINK-5255,PAYLOAD,2024-02-04 13:59:33,15.08844281,0.0001601,53.2178,159.3764,105.7668,254.3501,6.6564e-05,7.72e-06,0.0,0 STARLINK-5255,1 54208U 22141BD  24035.58302267  .00000772  00000-0  66564-4 0  9993,2 54208  53.2178 159.3764 0001601 105.7668 254.3501 15.08844281 70999,6917.867,95.437,540.84,538.625,0.0
54208.0,STARLINK-5255,PAYLOAD,2024-02-04 17:10:18,15.08854281,0.0001727,53.2177,158.7813,104.5693,255.549,1.1011e-05,-1.13e-06,0.0,0 STARLINK-5255,1 54208U 22141BD  24035.71549736 -.00000113  00000-0  11011-4 0  9999,2 54208  53.2177 158.7813 0001727 104.5693 255.5490 15.08854281 71240,6917.837,95.437,540.896,538.507,0.0
54208.0,STARLINK-5255,PAYLOAD,2024-02-05 12:14:57,15.08838271,0.0001512,53.2183,155.2157,95.0736,265.0429,5.7356e-05,6.25e-06,0.0,0 STARLINK-5255,1 54208U 22141BD  24036.51038835  .00000625  00000-0  57356-4 0  9990,2 54208  53.2183 155.2157 0001512  95.0736 265.0429 15.08838271 71366,6917.886,95.438,540.797,538.705,0.0
54208.0,STARLINK-5255,PAYLOAD,2024-02-05 13:50:20,15.08841815,0.0001485,53.2178,154.9172,97.7663,262.3498,8.3272e-05,1.038e-05,0.0,0 STARLINK-5255,1 54208U 22141BD  24036.57662522  .00001038  00000-0  83272-4 0  9997,2 54208  53.2178 154.9172 0001485  97.7663 262.3498 15.08841815 71140,6917.875,95.437,540.767,538.713,0.0
54208.0,STARLINK-5255,PAYLOAD,2024-02-05 15:25:42,15.08861001,0.0001804,53.2176,154.6195,109.2705,250.8483,-0.00015819,-2.806e-05,0.0,0 STARLINK-5255,1 54208U 22141BD  24036.64285875 -.00002806  00000-0 -15819-3 0  9994,2 54208  53.2176 154.6195 0001804 109.2705 250.8483 15.08861001 71382,6917.816,95.436,540.929,538.433,0.0
54208.0,STARLINK-5255,PAYLOAD,2024-02-06 12:05:44,15.08840268,0.0001774,53.2177,150.7556,61.1607,298.9563,6.9134e-05,8.12e-06,0.0,0 STARLINK-5255,1 54208U 22141BD  24037.50398905  .00000812  00000-0  69134-4 0  9992,2 54208  53.2177 150.7556 0001774  61.1607 298.9563 15.08840268 71513,6917.88,95.438,540.972,538.517,0.0
54208.0,STARLINK-5255,PAYLOAD,2024-02-06 13:41:07,15.08840845,0.0001787,53.2178,150.458,61.705,298.4122,6.4414e-05,7.37e-06,0.0,0 STARLINK-5255,1 54208U 22141BD  24037.57022876  .00000737  00000-0  64414-4 0  9992,2 54208  53.2178 150.4580 0001787  61.7050 298.4122 15.08840845 71292,6917.878,95.438,540.979,538.507,0.0
54208.0,STARLINK-5255,PAYLOAD,2024-02-07 13:31:54,15.08845586,0.0001413,53.2167,145.9945,90.7333,269.3821,3.579e-05,2.82e-06,0.0,0 STARLINK-5255,1 54208U 22141BD  24038.56382465  .00000282  00000-0  35790-4 0  9995,2 54208  53.2167 145.9945 0001413  90.7333 269.3821 15.08845586 71443,6917.863,95.437,540.706,538.751,0.0
54208.0,STARLINK-5255,PAYLOAD,2024-02-08 13:22:41,15.08843655,0.0001575,53.2172,141.5355,93.8182,266.299,9.4586e-05,1.218e-05,0.0,0 STARLINK-5255,1 54208U 22141BD  24039.55742458  .00001218  00000-0  94586-4 0  9995,2 54208  53.2172 141.5355 0001575  93.8182 266.2990 15.08843655 71595,6917.869,95.437,540.824,538.645,0.0
54208.0,STARLINK-5255,PAYLOAD,2024-02-09 11:38:05,15.08836969,0.0001615,53.2174,137.3727,94.6383,265.4794,3.7876e-05,3.15e-06,0.0,0 STARLINK-5255,1 54208U 22141BD  24040.48479108  .00000315  00000-0  37876-4 0  9994,2 54208  53.2174 137.3727 0001615  94.6383 265.4794 15.08836969 71964,6917.89,95.438,540.872,538.637,0.0
54208.0,STARLINK-5255,PAYLOAD,2024-02-09 13:13:28,15.08838587,0.0001629,53.2172,137.0751,95.1592,264.9586,5.0605e-05,5.17e-06,0.0,0 STARLINK-5255,1 54208U 22141BD  24040.55102981  .00000517  00000-0  50605-4 0  9993,2 54208  53.2172 137.0751 0001629  95.1592 264.9586 15.08838587 71746,6917.885,95.438,540.877,538.623,0.0
54208.0,STARLINK-5255,PAYLOAD,2024-02-09 16:24:14,15.08844579,0.0001605,53.2166,136.4776,99.0046,261.1127,2.1181e-05,4.9e-07,0.0,0 STARLINK-5255,1 54208U 22141BD  24040.68350613  .00000049  00000-0  21181-4 0  9991,2 54208  53.2166 136.4776 0001605  99.0046 261.1127 15.08844579 71995,6917.866,95.437,540.842,538.621,0.0
54208.0,STARLINK-5255,PAYLOAD,2024-02-10 11:28:52,15.08840013,0.0001745,53.2172,132.9103,109.8413,250.2768,3.1524e-05,2.14e-06,0.0,0 STARLINK-5255,1 54208U 22141BD  24041.47838988  .00000214  00000-0  31524-4 0  9991,2 54208  53.2172 132.9103 0001745 109.8413 250.2768 15.08840013 72114,6917.88,95.438,540.953,538.538,0.0
54208.0,STARLINK-5255,PAYLOAD,2024-02-10 13:04:15,15.08844176,0.0001597,53.2178,132.6146,103.8638,256.2532,7.3236e-06,-1.71e-06,0.0,0 STARLINK-5255,1 54208U 22141BD  24041.54462873 -.00000171  00000-0  73236-5 0  9995,2 54208  53.2178 132.6146 0001597 103.8638 256.2532 15.08844176 71895,6917.868,95.437,540.837,538.628,0.0
54208.0,STARLINK-5255,PAYLOAD,2024-02-10 16:15:01,15.08846811,0.0001474,53.2172,132.0171,99.9171,260.1988,6.2344e-05,7.05e-06,0.0,0 STARLINK-5255,1 54208U 22141BD  24041.67710489  .00000705  00000-0  62344-4 0  9997,2 54208  53.2172 132.0171 0001474  99.9171 260.1988 15.08846811 71912,6917.86,95.437,540.744,538.705,0.0
54208.0,STARLINK-5255,PAYLOAD,2024-02-11 11:19:39,15.08841902,0.0001814,53.2172,128.4493,125.1578,234.9584,2.3347e-05,8.3e-07,0.0,0 STARLINK-5255,1 54208U 22141BD  24042.47198943  .00000083  00000-0  23347-4 0  9990,2 54208  53.2172 128.4493 0001814 125.1578 234.9584 15.08841902 72265,6917.875,95.437,540.994,538.485,0.0
54208.0,STARLINK-5255,PAYLOAD,2024-02-12 14:21:12,15.08854517,0.0001405,53.2166,123.3956,69.8485,290.2658,0.00017863,2.557e-05,0.0,0 STARLINK-5255,1 54208U 22141BD  24043.59806009  .00002557  00000-0  17863-3 0  9996,2 54208  53.2166 123.3956 0001405  69.8485 290.2658 15.08854517 72200,6917.836,95.437,540.673,538.729,0.0
54208.0,STARLINK-5255,PAYLOAD,2024-02-13 11:01:14,15.08832747,0.0001357,53.2153,119.5305,86.9983,273.1164,-8.913e-05,-1.706e-05,0.0,0 STARLINK-5255,1 54208U 22141BD  24044.45919531 -.00001706  00000-0 -89130-4 0  9991,2 54208  53.2153 119.5305 0001357  86.9983 273.1164 15.08832747 72562,6917.903,95.438,540.706,538.829,0.0
54208.0,STARLINK-5255,PAYLOAD,2024-02-13 12:36:37,15.08836845,0.0001408,53.2156,119.2327,85.8535,274.2618,-1.7475e-05,-5.66e-06,0.0,0 STARLINK-5255,1 54208U 22141BD  24044.52543405 -.00000566  00000-0 -17475-4 0  9998,2 54208  53.2156 119.2327 0001408  85.8535 274.2618 15.08836845 72349,6917.89,95.438,540.729,538.781,0.0
54208.0,STARLINK-5255,PAYLOAD,2024-02-13 22:08:56,15.08837526,0.0001346,53.215,117.4476,88.3131,271.8015,4.2134e-05,3.83e-06,0.0,0 STARLINK-5255,1 54208U 22141BD  24044.92287513  .00000383  00000-0  42134-4 0  9992,2 54208  53.2150 117.4476 0001346  88.3131 271.8015 15.08837526 72407,6917.888,95.438,540.684,538.822,0.0
54208.0,STARLINK-5255,PAYLOAD,2024-02-14 10:52:01,15.0884532,0.0001336,53.2143,115.0691,82.4703,277.6441,0.00023678,3.483e-05,0.0,0 STARLINK-5255,1 54208U 22141BD  24045.45279329  .00003483  00000-0  23678-3 0  9992,2 54208  53.2143 115.0691 0001336  82.4703 277.6441 15.08845320 72713,6917.864,95.437,540.653,538.805,0.0
